IRIDIUM 150             
1 43257U 18030J   24251.83582109  .00000339  00000+0  11407-3 0  9993
2 43257  86.4017 200.9943 0001970  88.3476 271.7945 14.34213735337370
IRIDIUM 143             
1 43258U 18030K   24251.88655003  .00001436  00000+0  50555-3 0  9999
2 43258  86.4020 201.0404 0002199  88.5406 271.6041 14.34218556337314
IRIDIUM 161             
1 43478U 18047C   24251.82694888  .00001427  00000+0  41821-3 0  9995
2 43478  86.4551 359.0047 0001946  91.6146 268.5278 14.43280692331769
IRIDIUM 152             
1 43479U 18047D   24251.58020265  .00001277  00000+0  44885-3 0  9997
2 43479  86.4029 358.9677 0002184  94.6966 265.4480 14.34217103329670
IRIDIUM 147             
1 43480U 18047E   24251.65631795  .00000251  00000+0  82491-4 0  9990
2 43480  86.4030 358.9297 0002075  94.2939 265.8494 14.34220408329678
IRIDIUM 110             
1 43481U 18047F   24251.80219472  .00001404  00000+0  49401-3 0  9996
2 43481  86.4032 358.9432 0002142  79.5087 280.6350 14.34218608329683
IRIDIUM 160             
1 43569U 18061A   24251.74803223  .00001224  00000+0  42983-3 0  9993
2 43569  86.4004 327.3609 0002374  89.4791 270.6677 14.34223904320579
